start=new Date('2022-04-24T00:00:00.000Z').valueOf();
sats=[{"OBJECT_ID":"2021-040R","NORAD_CAT_ID":"48443","LAUNCH_DATE":"2021-05-09","REV_AT_EPOCH":"5446","SEMIMAJOR_AXIS":"6925.361","CENTER_NAME":"EARTH","SITE":"AFETR","BSTAR":"0.00002333200000","CLASSIFICATION_TYPE":"U","RA_OF_ASC_NODE":"58.8603","DECAY_DATE":null,"MEAN_MOTION_DDOT":"0.0000000000000","GP_ID":"201889775","ECCENTRICITY":"0.00014320","APOAPSIS":"548.217","COUNTRY_CODE":"US","TLE_LINE2":"2 48443  53.0569  58.8603 0001432  62.7905 297.3230 15.06396066 54469","OBJECT_NAME":"STARLINK-2663","MEAN_ELEMENT_THEORY":"SGP4","PERIAPSIS":"546.234","EPHEMERIS_TYPE":"0","FILE":"3413095","ELEMENT_SET_NO":"999","OBJECT_TYPE":"PAYLOAD","ARG_OF_PERICENTER":"62.7905","MEAN_MOTION_DOT":"0.00000066","MEAN_ANOMALY":"297.3230","RCS_SIZE":"LARGE","PERIOD":"95.592","MEAN_MOTION":"15.06396066","INCLINATION":"53.0569","TIME_SYSTEM":"UTC","REF_FRAME":"TEME","TLE_LINE1":"1 48443U 21040R   22113.56199722  .00000066  00000-0  23332-4 0  9999","EPOCH":"2022-04-23T13:29:16.559808"},{"ECCENTRICITY":"0.00013440","GP_ID":"201882058","OBJECT_NAME":"STARLINK-2645","MEAN_ELEMENT_THEORY":"SGP4","TLE_LINE2":"2 48444  53.0568  58.8842 0001344  62.1515 297.9610 15.06394191 53180","COUNTRY_CODE":"US","APOAPSIS":"548.162","SEMIMAJOR_AXIS":"6925.366","REV_AT_EPOCH":"5318","NORAD_CAT_ID":"48444","LAUNCH_DATE":"2021-05-09","OBJECT_ID":"2021-040S","MEAN_MOTION_DDOT":"0.0000000000000","RA_OF_ASC_NODE":"58.8842","DECAY_DATE":null,"CLASSIFICATION_TYPE":"U","BSTAR":"0.00002617800000","SITE":"AFETR","CENTER_NAME":"EARTH","TIME_SYSTEM":"UTC","INCLINATION":"53.0568","MEAN_MOTION":"15.06394191","EPOCH":"2022-04-23T13:23:58.450560","TLE_LINE1":"1 48444U 21040S   22113.55831540  .00000108  00000-0  26178-4 0  9998","REF_FRAME":"TEME","OBJECT_TYPE":"PAYLOAD","ELEMENT_SET_NO":"999","FILE":"3412883","EPHEMERIS_TYPE":"0","PERIAPSIS":"546.301","PERIOD":"95.593","RCS_SIZE":"LARGE","MEAN_MOTION_DOT":"0.00000108","MEAN_ANOMALY":"297.9610","ARG_OF_PERICENTER":"62.1515"},{"APOAPSIS":"548.542","COUNTRY_CODE":"US","MEAN_ELEMENT_THEORY":"SGP4","OBJECT_NAME":"STARLINK-2634","TLE_LINE2":"2 48445  53.0566  58.9019 0001883  44.7861 315.3279 15.06391967 54460","ECCENTRICITY":"0.00018830","GP_ID":"201855933","DECAY_DATE":null,"RA_OF_ASC_NODE":"58.9019","BSTAR":"0.00001693800000","CLASSIFICATION_TYPE":"U","MEAN_MOTION_DDOT":"0.0000000000000","CENTER_NAME":"EARTH","SITE":"AFETR","REV_AT_EPOCH":"5446","SEMIMAJOR_AXIS":"6925.373","OBJECT_ID":"2021-040T","NORAD_CAT_ID":"48445","LAUNCH_DATE":"2021-05-09","EPOCH":"2022-04-23T13:18:39.898080","REF_FRAME":"TEME","TLE_LINE1":"1 48445U 21040T   22113.55462845 -.00000029  00000-0  16938-4 0  9993","INCLINATION":"53.0566","TIME_SYSTEM":"UTC","MEAN_MOTION":"15.06391967","RCS_SIZE":"LARGE","PERIOD":"95.593","ARG_OF_PERICENTER":"44.7861","MEAN_ANOMALY":"315.3279","MEAN_MOTION_DOT":"-0.00000029","FILE":"3412738","ELEMENT_SET_NO":"999","OBJECT_TYPE":"PAYLOAD","EPHEMERIS_TYPE":"0","PERIAPSIS":"545.934"},{"COUNTRY_CODE":"US","APOAPSIS":"548.356","MEAN_ELEMENT_THEORY":"SGP4","OBJECT_NAME":"STARLINK-2247","TLE_LINE2":"2 48446  53.0563  58.9142 0001626  55.0980 305.0162 15.06394641 53184","GP_ID":"201880558","ECCENTRICITY":"0.00016260","RA_OF_ASC_NODE":"58.9142","DECAY_DATE":null,"CLASSIFICATION_TYPE":"U","BSTAR":"-0.00002161800000","MEAN_MOTION_DDOT":"0.0000000000000","CENTER_NAME":"EARTH","SITE":"AFETR","REV_AT_EPOCH":"5318","SEMIMAJOR_AXIS":"6925.365","OBJECT_ID":"2021-040U","LAUNCH_DATE":"2021-05-09","NORAD_CAT_ID":"48446","EPOCH":"2022-04-23T13:13:21.253152","REF_FRAME":"TEME","TLE_LINE1":"1 48446U 21040U   22113.55094043 -.00000603  00000-0 -21618-4 0  9995","INCLINATION":"53.0563","TIME_SYSTEM":"UTC","MEAN_MOTION":"15.06394641","RCS_SIZE":"LARGE","PERIOD":"95.592","ARG_OF_PERICENTER":"55.0980","MEAN_ANOMALY":"305.0162","MEAN_MOTION_DOT":"-0.00000603","FILE":"3412883","ELEMENT_SET_NO":"999","OBJECT_TYPE":"PAYLOAD","EPHEMERIS_TYPE":"0","PERIAPSIS":"546.104"},{"REV_AT_EPOCH":"5373","SEMIMAJOR_AXIS":"6925.392","OBJECT_ID":"2021-040V","LAUNCH_DATE":"2021-05-09","NORAD_CAT_ID":"48447","DECAY_DATE":null,"RA_OF_ASC_NODE":"58.9349","BSTAR":"-0.00006496900000","CLASSIFICATION_TYPE":"U","MEAN_MOTION_DDOT":"0.0000000000000","CENTER_NAME":"EARTH","SITE":"AFETR","ECCENTRICITY":"0.00012210","GP_ID":"201856426","COUNTRY_CODE":"US","APOAPSIS":"548.103","OBJECT_NAME":"STARLINK-2269","MEAN_ELEMENT_THEORY":"SGP4","TLE_LINE2":"2 48447  53.0577  58.9349 0001221  77.9253 282.1873 15.06385828 53738","FILE":"3412738","ELEMENT_SET_NO":"999","OBJECT_TYPE":"PAYLOAD","EPHEMERIS_TYPE":"0","PERIAPSIS":"546.411","RCS_SIZE":"LARGE","PERIOD":"95.593","ARG_OF_PERICENTER":"77.9253","MEAN_ANOMALY":"282.1873","MEAN_MOTION_DOT":"-0.00001249","INCLINATION":"53.0577","TIME_SYSTEM":"UTC","MEAN_MOTION":"15.06385828","EPOCH":"2022-04-23T13:08:03.420384","REF_FRAME":"TEME","TLE_LINE1":"1 48447U 21040V   22113.54726181 -.00001249  00000-0 -64969-4 0  9993"},{"ELEMENT_SET_NO":"999","FILE":"3412883","OBJECT_TYPE":"PAYLOAD","PERIAPSIS":"546.042","EPHEMERIS_TYPE":"0","RCS_SIZE":"LARGE","PERIOD":"95.592","ARG_OF_PERICENTER":"56.3505","MEAN_MOTION_DOT":"-0.00000404","MEAN_ANOMALY":"303.7646","INCLINATION":"53.0558","TIME_SYSTEM":"UTC","MEAN_MOTION":"15.06397713","EPOCH":"2022-04-23T13:43:50.520000","REF_FRAME":"TEME","TLE_LINE1":"1 48448U 21040W   22113.57211250 -.00000404  00000-0 -82377-5 0  9999","REV_AT_EPOCH":"5318","SEMIMAJOR_AXIS":"6925.356","OBJECT_ID":"2021-040W","NORAD_CAT_ID":"48448","LAUNCH_DATE":"2021-05-09","BSTAR":"-0.00000823770000","CLASSIFICATION_TYPE":"U","DECAY_DATE":null,"RA_OF_ASC_NODE":"58.8214","MEAN_MOTION_DDOT":"0.0000000000000","CENTER_NAME":"EARTH","SITE":"AFETR","ECCENTRICITY":"0.00017020","GP_ID":"201881559","COUNTRY_CODE":"US","APOAPSIS":"548.399","TLE_LINE2":"2 48448  53.0558  58.8214 0001702  56.3505 303.7646 15.06397713 53186","MEAN_ELEMENT_THEORY":"SGP4","OBJECT_NAME":"STARLINK-2632"},{"EPOCH":"2022-04-23T13:02:43.970208","TLE_LINE1":"1 48449U 21040X   22113.54356447 -.00000466  00000-0 -12368-4 0  9995","REF_FRAME":"TEME","TIME_SYSTEM":"UTC","INCLINATION":"53.0552","MEAN_MOTION":"15.06395583","PERIOD":"95.592","RCS_SIZE":"LARGE","MEAN_MOTION_DOT":"-0.00000466","MEAN_ANOMALY":"301.9232","ARG_OF_PERICENTER":"58.1913","OBJECT_TYPE":"PAYLOAD","FILE":"3412738","ELEMENT_SET_NO":"999","PERIAPSIS":"546.115","EPHEMERIS_TYPE":"0","TLE_LINE2":"2 48449  53.0552  58.9466 0001606  58.1913 301.9232 15.06395583 54463","MEAN_ELEMENT_THEORY":"SGP4","OBJECT_NAME":"STARLINK-2655","APOAPSIS":"548.339","COUNTRY_CODE":"US","GP_ID":"201855930","ECCENTRICITY":"0.00016060","MEAN_MOTION_DDOT":"0.0000000000000","CLASSIFICATION_TYPE":"U","BSTAR":"-0.00001236800000","RA_OF_ASC_NODE":"58.9466","DECAY_DATE":null,"SITE":"AFETR","CENTER_NAME":"EARTH","SEMIMAJOR_AXIS":"6925.362","REV_AT_EPOCH":"5446","LAUNCH_DATE":"2021-05-09","NORAD_CAT_ID":"48449","OBJECT_ID":"2021-040X"},{"DECAY_DATE":null,"RA_OF_ASC_NODE":"58.9658","CLASSIFICATION_TYPE":"U","BSTAR":"-0.00006997700000","MEAN_MOTION_DDOT":"0.0000000000000","CENTER_NAME":"EARTH","SITE":"AFETR","REV_AT_EPOCH":"5446","SEMIMAJOR_AXIS":"6925.362","OBJECT_ID":"2021-040Y","LAUNCH_DATE":"2021-05-09","NORAD_CAT_ID":"48450","APOAPSIS":"548.408","COUNTRY_CODE":"US","OBJECT_NAME":"STARLINK-2660","MEAN_ELEMENT_THEORY":"SGP4","TLE_LINE2":"2 48450  53.0571  58.9658 0001706  54.2134 305.9014 15.06395631 54468","GP_ID":"201855939","ECCENTRICITY":"0.00017060","RCS_SIZE":"LARGE","PERIOD":"95.592","ARG_OF_PERICENTER":"54.2134","MEAN_ANOMALY":"305.9014","MEAN_MOTION_DOT":"-0.00001324","FILE":"3412738","ELEMENT_SET_NO":"999","OBJECT_TYPE":"PAYLOAD","EPHEMERIS_TYPE":"0","PERIAPSIS":"546.045","EPOCH":"2022-04-23T12:57:26.442432","REF_FRAME":"TEME","TLE_LINE1":"1 48450U 21040Y   22113.53988938 -.00001324  00000-0 -69977-4 0  9994","INCLINATION":"53.0571","TIME_SYSTEM":"UTC","MEAN_MOTION":"15.06395631"},{"EPHEMERIS_TYPE":"0","PERIAPSIS":"546.176","FILE":"3413094","ELEMENT_SET_NO":"999","OBJECT_TYPE":"PAYLOAD","ARG_OF_PERICENTER":"70.6683","MEAN_ANOMALY":"289.4472","MEAN_MOTION_DOT":"-0.00001647","RCS_SIZE":"LARGE","PERIOD":"95.593","MEAN_MOTION":"15.06391576","INCLINATION":"53.0553","TIME_SYSTEM":"UTC","REF_FRAME":"TEME","TLE_LINE1":"1 48451U 21040Z   22113.53619893 -.00001647  00000-0 -91701-4 0  9994","EPOCH":"2022-04-23T12:52:07.587552","OBJECT_ID":"2021-040Z","NORAD_CAT_ID":"48451","LAUNCH_DATE":"2021-05-09","REV_AT_EPOCH":"5446","SEMIMAJOR_AXIS":"6925.374","CENTER_NAME":"EARTH","SITE":"AFETR","RA_OF_ASC_NODE":"58.9797","DECAY_DATE":null,"CLASSIFICATION_TYPE":"U","BSTAR":"-0.00009170100000","MEAN_MOTION_DDOT":"0.0000000000000","ECCENTRICITY":"0.00015350","GP_ID":"201889719","APOAPSIS":"548.302","COUNTRY_CODE":"US","OBJECT_NAME":"STARLINK-2652","MEAN_ELEMENT_THEORY":"SGP4","TLE_LINE2":"2 48451  53.0553  58.9797 0001535  70.6683 289.4472 15.06391576 54462"},{"EPOCH":"2022-04-23T12:56:04.212096","TLE_LINE1":"1 48452U 21040AA  22113.53893764 -.00000414  00000-0 -88646-5 0  9992","REF_FRAME":"TEME","TIME_SYSTEM":"UTC","INCLINATION":"53.0577","MEAN_MOTION":"15.06400459","PERIOD":"95.592","RCS_SIZE":"LARGE","MEAN_MOTION_DOT":"-0.00000414","MEAN_ANOMALY":"305.7855","ARG_OF_PERICENTER":"54.3282","OBJECT_TYPE":"PAYLOAD","ELEMENT_SET_NO":"999","FILE":"3412739","EPHEMERIS_TYPE":"0","PERIAPSIS":"546.105","OBJECT_NAME":"STARLINK-2703","MEAN_ELEMENT_THEORY":"SGP4","TLE_LINE2":"2 48452  53.0577  58.9745 0001598  54.3282 305.7855 15.06400459 54463","APOAPSIS":"548.319","COUNTRY_CODE":"US","ECCENTRICITY":"0.00015980","GP_ID":"201855951","MEAN_MOTION_DDOT":"0.0000000000000","DECAY_DATE":null,"RA_OF_ASC_NODE":"58.9745","BSTAR":"-0.00000886460000","CLASSIFICATION_TYPE":"U","SITE":"AFETR","CENTER_NAME":"EARTH","SEMIMAJOR_AXIS":"6925.347","REV_AT_EPOCH":"5446","LAUNCH_DATE":"2021-05-09","NORAD_CAT_ID":"48452","OBJECT_ID":"2021-040AA"}];
